STARLINK-37253          
1 68606U 26073E   26106.93158294  .00168538  00000+0  86093-3 0  9999
2 68606  97.2849 304.5476 0001883  55.3759 304.7686 15.80886561  1575
