{
  "norad_id": 68606,
  "name": "STARLINK-37253",
  "history": [
    {
      "epoch": "2026-04-16T22:21:28.766016Z",
      "apogee_km": 329.19537574672995,
      "perigee_km": 326.66919944609344,
      "latitude_deg": -5.956148075102222e-05,
      "longitude_deg": 124.10554078639076,
      "height_km": 330.38793154821366,
      "semi_major_axis_km": 6706.069287596411,
      "eccentricity": 0.00018835,
      "inclination_deg": 97.2849,
      "raan_deg": 304.5476,
      "arg_perigee_deg": 55.3759,
      "mean_anomaly_deg": 304.7686,
      "mean_motion_rev_day": 15.80886561
    }
  ]
}